{
  "norad_id": 47509,
  "name": "GHGSAT-C2",
  "history": [
    {
      "epoch": "2026-03-28T16:43:39.701856Z",
      "apogee_km": 460.3809559987394,
      "perigee_km": 450.7899632011404,
      "latitude_deg": 3.1625881412150396e-05,
      "longitude_deg": 59.31815374416463,
      "height_km": 459.3359428555278,
      "semi_major_axis_km": 6833.72245959994,
      "eccentricity": 0.00070174,
      "inclination_deg": 97.2259,
      "raan_deg": 136.3473,
      "arg_perigee_deg": 97.7389,
      "mean_anomaly_deg": 262.4653,
      "mean_motion_rev_day": 15.36797895
    },
    {
      "epoch": "2026-03-29T02:06:14.084064Z",
      "apogee_km": 460.36089572877336,
      "perigee_km": 450.7704773784635,
      "latitude_deg": -4.239561007068128e-05,
      "longitude_deg": -81.32626375737463,
      "height_km": 459.2308618153837,
      "semi_major_axis_km": 6833.702686553618,
      "eccentricity": 0.0007017,
      "inclination_deg": 97.2257,
      "raan_deg": 136.7312,
      "arg_perigee_deg": 96.7122,
      "mean_anomaly_deg": 263.4921,
      "mean_motion_rev_day": 15.36804565
    },
    {
      "epoch": "2026-03-30T01:32:39.266304Z",
      "apogee_km": 460.2803086470449,
      "perigee_km": 450.73029353127276,
      "latitude_deg": 4.827109121474477e-05,
      "longitude_deg": -72.93406073133488,
      "height_km": 458.94495094997677,
      "semi_major_axis_km": 6833.6423010891585,
      "eccentricity": 0.00069875,
      "inclination_deg": 97.2253,
      "raan_deg": 137.691,
      "arg_perigee_deg": 94.0228,
      "mean_anomaly_deg": 266.1816,
      "mean_motion_rev_day": 15.36824935
    },
    {
      "epoch": "2026-03-30T20:17:46.712256Z",
      "apogee_km": 460.24115401368726,
      "perigee_km": 450.6880523165264,
      "latitude_deg": -2.7346145604974643e-05,
      "longitude_deg": 5.782604824072012,
      "height_km": 458.724846908085,
      "semi_major_axis_km": 6833.601603165107,
      "eccentricity": 0.00069898,
      "inclination_deg": 97.2249,
      "raan_deg": 138.4588,
      "arg_perigee_deg": 91.8669,
      "mean_anomaly_deg": 268.3376,
      "mean_motion_rev_day": 15.36838664
    },
    {
      "epoch": "2026-03-31T13:29:08.031264Z",
      "apogee_km": 460.20983843542126,
      "perigee_km": 450.64831278242946,
      "latitude_deg": -3.5919016934552345e-05,
      "longitude_deg": 107.94164004196458,
      "height_km": 458.5280581146237,
      "semi_major_axis_km": 6833.5660756089255,
      "eccentricity": 0.0006996,
      "inclination_deg": 97.2247,
      "raan_deg": 139.1626,
      "arg_perigee_deg": 89.9327,
      "mean_anomaly_deg": 270.2719,
      "mean_motion_rev_day": 15.36850649
    },
    {
      "epoch": "2026-04-01T20:44:18.265920Z",
      "apogee_km": 460.13810418562935,
      "perigee_km": 450.6012622585258,
      "latitude_deg": -7.271539666579e-05,
      "longitude_deg": -0.8548066924637691,
      "height_km": 458.1840541839968,
      "semi_major_axis_km": 6833.506683222077,
      "eccentricity": 0.0006978,
      "inclination_deg": 97.2241,
      "raan_deg": 140.4423,
      "arg_perigee_deg": 86.5098,
      "mean_anomaly_deg": 273.6944,
      "mean_motion_rev_day": 15.36870685
    },
    {
      "epoch": "2026-04-02T09:14:21.909120Z",
      "apogee_km": 460.08761797156785,
      "perigee_km": 450.58376082460654,
      "latitude_deg": 2.7558285937796423e-05,
      "longitude_deg": 171.6286027840033,
      "height_km": 458.0497551254755,
      "semi_major_axis_km": 6833.472689398087,
      "eccentricity": 0.00069539,
      "inclination_deg": 97.224,
      "raan_deg": 140.9543,
      "arg_perigee_deg": 85.2844,
      "mean_anomaly_deg": 274.9195,
      "mean_motion_rev_day": 15.36882153
    },
    {
      "epoch": "2026-04-03T14:55:44.091840Z",
      "apogee_km": 460.00369937737105,
      "perigee_km": 450.49026219931693,
      "latitude_deg": -3.447927696766561e-05,
      "longitude_deg": 86.2825787446451,
      "height_km": 457.6876936237663,
      "semi_major_axis_km": 6833.383980788343,
      "eccentricity": 0.0006961,
      "inclination_deg": 97.2236,
      "raan_deg": 142.17,
      "arg_perigee_deg": 81.9745,
      "mean_anomaly_deg": 278.2289,
      "mean_motion_rev_day": 15.3691208
    },
    {
      "epoch": "2026-04-04T01:52:01.188192Z",
      "apogee_km": 459.945464890312,
      "perigee_km": 450.4754020161854,
      "latitude_deg": 7.960508239319528e-06,
      "longitude_deg": -77.7897725858655,
      "height_km": 457.5451440806532,
      "semi_major_axis_km": 6833.347433453248,
      "eccentricity": 0.00069293,
      "inclination_deg": 97.2234,
      "raan_deg": 142.6181,
      "arg_perigee_deg": 80.6383,
      "mean_anomaly_deg": 279.5645,
      "mean_motion_rev_day": 15.3692441
    },
    {
      "epoch": "2026-04-05T13:48:21.468672Z",
      "apogee_km": 459.8236561427266,
      "perigee_km": 450.4440352490901,
      "latitude_deg": 4.876927997005429e-05,
      "longitude_deg": 103.12145744355185,
      "height_km": 457.15461094182524,
      "semi_major_axis_km": 6833.270845695908,
      "eccentricity": 0.00068632,
      "inclination_deg": 97.223,
      "raan_deg": 144.0898,
      "arg_perigee_deg": 76.6292,
      "mean_anomaly_deg": 283.5718,
      "mean_motion_rev_day": 15.36950249
    },
    {
      "epoch": "2026-04-05T15:22:06.651264Z",
      "apogee_km": 459.8180496667792,
      "perigee_km": 450.44280675527443,
      "latitude_deg": 3.895269526733732e-05,
      "longitude_deg": 79.68302608633759,
      "height_km": 457.1382243299918,
      "semi_major_axis_km": 6833.2674282110265,
      "eccentricity": 0.000686,
      "inclination_deg": 97.223,
      "raan_deg": 144.1538,
      "arg_perigee_deg": 76.4596,
      "mean_anomaly_deg": 283.7413,
      "mean_motion_rev_day": 15.36951402
    },
    {
      "epoch": "2026-04-06T02:18:22.824000Z",
      "apogee_km": 459.7864215726904,
      "perigee_km": 450.4307517101961,
      "latitude_deg": 1.1831618753240348e-05,
      "longitude_deg": -84.38555832038637,
      "height_km": 457.0216617610934,
      "semi_major_axis_km": 6833.245586641443,
      "eccentricity": 0.00068457,
      "inclination_deg": 97.223,
      "raan_deg": 144.6018,
      "arg_perigee_deg": 75.2327,
      "mean_anomaly_deg": 284.9676,
      "mean_motion_rev_day": 15.36958771
    },
    {
      "epoch": "2026-04-06T21:03:24.416352Z",
      "apogee_km": 459.728111037728,
      "perigee_km": 450.4212767106719,
      "latitude_deg": -2.3118162194796606e-05,
      "longitude_deg": -5.644443957575162,
      "height_km": 456.8330145165176,
      "semi_major_axis_km": 6833.2116938742,
      "eccentricity": 0.000681,
      "inclination_deg": 97.2228,
      "raan_deg": 145.3696,
      "arg_perigee_deg": 73.1697,
      "mean_anomaly_deg": 287.0294,
      "mean_motion_rev_day": 15.36970206
    },
    {
      "epoch": "2026-04-07T20:29:40.725312Z",
      "apogee_km": 459.64957170037724,
      "perigee_km": 450.4288836987189,
      "latitude_deg": 1.4600925774516308e-05,
      "longitude_deg": 2.784835625503139,
      "height_km": 456.6032294964631,
      "semi_major_axis_km": 6833.176227699548,
      "eccentricity": 0.0006747,
      "inclination_deg": 97.2227,
      "raan_deg": 146.3294,
      "arg_perigee_deg": 70.4599,
      "mean_anomaly_deg": 289.7374,
      "mean_motion_rev_day": 15.36982172
    },
    {
      "epoch": "2026-04-08T13:40:56.269344Z",
      "apogee_km": 459.6062195717577,
      "perigee_km": 450.4202790286181,
      "latitude_deg": 6.021353330045201e-06,
      "longitude_deg": 104.9679959686663,
      "height_km": 456.437737134984,
      "semi_major_axis_km": 6833.150249300188,
      "eccentricity": 0.00067216,
      "inclination_deg": 97.2226,
      "raan_deg": 147.0332,
      "arg_perigee_deg": 68.5212,
      "mean_anomaly_deg": 291.6749,
      "mean_motion_rev_day": 15.36990937
    },
    {
      "epoch": "2026-04-09T02:10:56.421984Z",
      "apogee_km": 459.56899891981266,
      "perigee_km": 450.4203922178831,
      "latitude_deg": 1.3341358118042851e-05,
      "longitude_deg": -82.53410104584071,
      "height_km": 456.32187813979647,
      "semi_major_axis_km": 6833.131695568847,
      "eccentricity": 0.00066943,
      "inclination_deg": 97.2226,
      "raan_deg": 147.5451,
      "arg_perigee_deg": 67.1099,
      "mean_anomaly_deg": 293.0852,
      "mean_motion_rev_day": 15.36997197
    },
    {
      "epoch": "2026-04-10T09:25:55.975872Z",
      "apogee_km": 459.45293016243977,
      "perigee_km": 450.4278015775999,
      "latitude_deg": -9.140752111273047e-06,
      "longitude_deg": 168.71407019827905,
      "height_km": 456.03074093638816,
      "semi_major_axis_km": 6833.07736587002,
      "eccentricity": 0.0006604,
      "inclination_deg": 97.2226,
      "raan_deg": 148.8248,
      "arg_perigee_deg": 63.4556,
      "mean_anomaly_deg": 296.7365,
      "mean_motion_rev_day": 15.37015528
    },
    {
      "epoch": "2026-04-11T13:33:24.629760Z",
      "apogee_km": 459.3462315898196,
      "perigee_km": 450.4619115885389,
      "latitude_deg": -3.19766620926301e-05,
      "longitude_deg": 106.84134219867316,
      "height_km": 455.80214645694633,
      "semi_major_axis_km": 6833.0410715891785,
      "eccentricity": 0.0006501,
      "inclination_deg": 97.223,
      "raan_deg": 149.9765,
      "arg_perigee_deg": 60.1723,
      "mean_anomaly_deg": 300.0167,
      "mean_motion_rev_day": 15.37027774
    },
    {
      "epoch": "2026-04-13T01:29:36.804192Z",
      "apogee_km": 459.2465912466914,
      "perigee_km": 450.4876365932214,
      "latitude_deg": 4.355178967402541e-06,
      "longitude_deg": -72.21365877824744,
      "height_km": 455.5271218160111,
      "semi_major_axis_km": 6833.004113919956,
      "eccentricity": 0.00064093,
      "inclination_deg": 97.2228,
      "raan_deg": 151.4481,
      "arg_perigee_deg": 56.0113,
      "mean_anomaly_deg": 304.174,
      "mean_motion_rev_day": 15.37040244
    },
    {
      "epoch": "2026-04-14T14:59:32.840160Z",
      "apogee_km": 459.13844666834575,
      "perigee_km": 450.5316350856565,
      "latitude_deg": -2.845597201579918e-05,
      "longitude_deg": 85.2982385973073,
      "height_km": 455.26927763436987,
      "semi_major_axis_km": 6832.972040877001,
      "eccentricity": 0.0006298,
      "inclination_deg": 97.2224,
      "raan_deg": 152.9835,
      "arg_perigee_deg": 51.5696,
      "mean_anomaly_deg": 308.6113,
      "mean_motion_rev_day": 15.37051066
    },
    {
      "epoch": "2026-04-15T20:40:44.025024Z",
      "apogee_km": 459.05334231863617,
      "perigee_km": 450.5654563014132,
      "latitude_deg": 6.63511330036897e-05,
      "longitude_deg": -0.0019534379867170238,
      "height_km": 455.08943867607564,
      "semi_major_axis_km": 6832.946399310024,
      "eccentricity": 0.0006211,
      "inclination_deg": 97.222,
      "raan_deg": 154.1991,
      "arg_perigee_deg": 48.1831,
      "mean_anomaly_deg": 311.9944,
      "mean_motion_rev_day": 15.37059718
    }
  ]
}